PathFileType	4	(X/Y/Z)	src/sandbox/sqp_backend_markers.trc
DataRate	CameraRate	NumFrames	NumMarkers	Units	OrigDataRate	OrigDataStartFrame	OrigNumFrames
100.0	100.0	201	2	m	100.0	0	201
Frame#	Time	/markerset/m0|location			/markerset/m1|location			
		X1	Y1	Z1	X2	Y2	Z2	

1	0	1.25	0	0	2	0	0	
2	0.01	1.249999950242409	-0.0003526953012895551	0	1.999999948605647	-0.0004022446918571363	0	
3	0.02	1.249999203878734	-0.001410780823744377	0	1.999999177690523	-0.001608978492326396	0	
4	0.03	1.249995969640317	-0.003174253134644825	0	1.999995837061873	-0.003620198925491638	0	
5	0.04	1.24998726210909	-0.005643098884595327	0	1.999986843090412	-0.006435896362835042	0	
6	0.05	1.249968901818781	-0.008817283365647372	0	1.999967878796553	-0.0100560457705196	0	
7	0.06	1.249935515509974	-0.01269673449419944	0	1.999933394067732	-0.01448059515656914	0	
8	0.07000000000000001	1.24988053665231	-0.01728132222181893	0	1.999876606103341	-0.01970945071997249	0	
9	0.08	1.249796206379471	-0.02257083338033884	0	1.999789500211352	-0.02574245870580575	0	
10	0.09	1.249673575014734	-0.02856494197251934	0	1.99966283110806	-0.03257938397364768	0	
11	0.09999999999999999	1.249502504396888	-0.03526317492660921	0	1.999486124899605	-0.04021988529110337	0	
12	0.11	1.249271671247953	-0.04266487334266926	0	1.999247681950793	-0.0486634873703892	0	
13	0.12	1.248968571855317	-0.050769149270892	0	1.998934580873116	-0.05790954967390344	0	
14	0.13	1.248579528371346	-0.0595748380777192	0	1.998532683889554	-0.06795723202473476	0	
15	0.14	1.248089697063021	-0.06908044647465139	0	1.998026643858492	-0.07880545707035776	0	
16	0.15	1.247483078872292	-0.07928409630756224	0	1.997399913262444	-0.09045286966252147	0	
17	0.16	1.246742532674343	-0.0901834642313406	0	1.996634755489074	-0.1028977932337229	0	
18	0.17	1.245849791645214	-0.1017757174260023	0	1.995712258751587	-0.1161381832708083	0	
19	0.18	1.24478548317189	-0.114057445546198	0	1.994612353012498	-0.1301715780092554	0	
20	0.19	1.243529152756273	-0.127024589136378	0	1.993313830288582	-0.1449950464976084	0	
21	0.2	1.242059292378886	-0.140672364788757	0	1.991794368724648	-0.1606051342103523	0	
22	0.21	1.240353373797956	-0.154995187370537	0	1.990030560829149	-0.1769978064191376	0	
23	0.2200000000000001	1.238387887263936	-0.1699865897003826	0	1.987997946264769	-0.1941683895665503	0	
24	0.2300000000000001	1.236138386127806	-0.1856391401115182	0	1.985671049581243	-0.2121115109232973	0	
25	0.2400000000000001	1.233579537812863	-0.2019443583995459	0	1.98302342326511	-0.230821036848412	0	
26	0.2500000000000001	1.23068518160333	-0.2188926307164766	0	1.980027696461087	-0.2502900100123998	0	
27	0.2600000000000001	1.227428393678364	-0.2364731240377046	0	1.976655629691721	-0.2705105859845821	0	
28	0.2700000000000001	1.223781559786135	-0.2546737008947221	0	1.972878175865256	-0.2914739696275643	0	
29	0.2800000000000001	1.219716455909098	-0.2734808351320951	0	1.9686655478159	-0.3131703517829398	0	
30	0.2900000000000001	1.215204337217927	-0.2928795295112636	0	1.963987292565542	-0.3355888467721456	0	
31	0.3000000000000001	1.210216035547542	-0.3128532360446195	0	1.958812372431434	-0.35871743127378	0	
32	0.3100000000000001	1.204722065554241	-0.3333837799994504	0	1.953109253030468	-0.3825428851725915	0	
33	0.3200000000000001	1.198692739628222	-0.3544512885610488	0	1.946845998148047	-0.4070507350045969	0	
34	0.3300000000000001	1.19209829154131	-0.3760341251858532	0	1.939990371348692	-0.432225200646186	0	
35	0.3400000000000001	1.184909008706127	-0.3981088307072114	0	1.932509944107639	-0.4580491459114554	0	
36	0.3500000000000001	1.177095372811263	-0.4206500722766056	0	1.924372210139089	-0.4845040337302339	0	
37	0.3600000000000002	1.168628208478607	-0.4436306012304405	0	1.915544705489101	-0.5115698865782539	0	
38	0.3700000000000002	1.159478839465346	-0.4670212209654874	0	1.905995133851466	-0.5392252528197787	0	
39	0.3800000000000002	1.149619251806125	-0.4907907658837171	0	1.895691496455404	-0.5674471796009432	0	
40	0.3900000000000002	1.139022263162437	-0.5149060924288242	0	1.884602225767123	-0.5962111928985658	0	
41	0.4000000000000002	1.127661697518692	-0.5393320831818386	0	1.872696322145712	-0.6254912852839658	0	
42	0.4100000000000002	1.115512564239769	-0.5640316649118347	0	1.859943492500193	-0.6552599119043228	0	
43	0.4200000000000002	1.10255124038543	-0.5889658413902705	0	1.846314289911429	-0.6854879951156581	0	
44	0.4300000000000002	1.088755655064988	-0.614093741674681	0	1.831780253112483	-0.7161449381221376	0	
45	0.4400000000000002	1.074105474512918	-0.6393726844504538	0	1.816314044666204	-0.7471986478869761	0	
46	0.4500000000000002	1.05858228647469	-0.6647582588896633	0	1.799889586641183	-0.7786155674818928	0	
47	0.4600000000000002	1.042169782413239	-0.6902044223451069	0	1.782482192568457	-0.8103607179361896	0	
48	0.4700000000000003	1.024853935981586	-0.7156636150476361	0	1.764068694462381	-0.8423977495346793	0	
49	0.4800000000000003	1.006623176156932	-0.7410868918175046	0	1.744627563710658	-0.8746890023975766	0	
50	0.4900000000000003	0.9874685533965937	-0.7664240706376847	0	1.724139024680736	-0.9071955760569285	0	
51	0.5000000000000002	0.9673838971568073	-0.7916238977707202	0	1.702585159952161	-0.9398774076250156	0	
52	0.5100000000000002	0.9463659631115666	-0.8166342289323396	0	1.679950006166314	-0.9726933580323371	0	
53	0.5200000000000002	0.9244145684202145	-0.8414022258661242	0	1.656219639584899	-1.005601305698048	0	
54	0.5300000000000002	0.9015327134191947	-0.8658745674952141	0	1.631382250565098	-1.038558246885914	0	
55	0.5400000000000003	0.8777266881549319	-0.8899976746602065	0	1.605428206290648	-1.071520401895598	0	
56	0.5500000000000003	0.8530061622310776	-0.9137179472877877	0	1.578350101242163	-1.104443326144098	0	
57	0.5600000000000003	0.827384256514281	-0.9369820126727675	0	1.550142795044871	-1.13728202510693	0	
58	0.5700000000000003	0.8008775953284215	-0.9597369833975166	0	1.520803437495335	-1.169991072014741	0	
59	0.5800000000000003	0.7735063378682078	-0.981930723257865	0	1.490331480738684	-1.202524727139933	0	
60	0.5900000000000003	0.7452941876798571	-1.003512119413922	0	1.458728678742253	-1.23483705746112	0	
61	0.6000000000000003	0.7162683791899639	-1.024431358838933	0	1.425999074388408	-1.266882055462252	0	
62	0.6100000000000003	0.6864596404145457	-1.044640207000445	0	1.392148974686531	-1.298613755809691	0	
63	0.6200000000000003	0.655902131149503	-1.06409228657741	0	1.357186914779821	-1.329986348655858	0	
64	0.6300000000000003	0.6246333561321067	-1.082743353896546	0	1.321123611594425	-1.360954288343837	0	
65	0.6400000000000003	0.5926940528711238	-1.100551570664093	0	1.283971908144214	-1.391472396334991	0	
66	0.6500000000000004	0.5601280540708987	-1.117477768478079	0	1.245746709661849	-1.421495957252464	0	
67	0.6600000000000004	0.5269821248216069	-1.133485703535119	0	1.206464912872751	-1.450980807028454	0	
68	0.6700000000000004	0.4933057749928036	-1.148542298898369	0	1.166145329860306	-1.479883412262981	0	
69	0.6800000000000004	0.4591510475482829	-1.162617871673799	0	1.124808608084781	-1.508160940046756	0	
70	0.6900000000000004	0.4245722837942021	-1.175686342454388	0	1.082477148211425	-1.535771317670176	0	
71	0.7000000000000004	0.3896258668755769	-1.187725424440117	0	1.039175021471504	-1.562673281833271	0	
72	0.7100000000000004	0.3543699451438087	-1.19871678972924	0	0.9949278883197951	-1.588826417185612	0	
73	0.7200000000000004	0.3188641373242153	-1.208646210405875	0	0.94976292015979	-1.61419118425784	0	
74	0.7300000000000004	0.2831692217112008	-1.217503672222582	0	0.9037087258801357	-1.638728937093734	0	
75	0.7400000000000004	0.2473468119027103	-1.225283458894947	0	0.8567952848799876	-1.66240193114894	0	
76	0.7500000000000004	0.2114590218476063	-1.23198420528806	0	0.8090538881546395	-1.685173322283911	0	
77	0.7600000000000005	0.175568123212084	-1.237608918080258	0	0.7605170888649149	-1.707007157938146	0	
78	0.7700000000000005	0.1397361982668518	-1.242164962834618	0	0.7112186636240726	-1.727868361823376	0	
79	0.7800000000000005	0.1040247916486699	-1.245664016788817	0	0.6611935855054393	-1.747722713708005	0	
80	0.7900000000000005	0.06849456445179618	-1.248121987083217	0	0.6104780095049279	-1.766536826076411	0	
81	0.8000000000000005	0.03320495415184127	-1.249558894578312	0	0.559109270888704	-1.784278119627809	0	
82	0.8100000000000005	-0.00178615614732892	-1.249998723857836	0	0.5071258965224564	-1.800914799723684	0	
83	0.8200000000000005	-0.03642275572597597	-1.249469240463856	0	0.4545676289211922	-1.81641583599471	0	
84	0.8300000000000005	-0.07065100823713631	-1.248001776855737	0	0.4014754623844112	-1.830750947372899	0	
85	0.8400000000000005	-0.1044195345836314	-1.245630989016144	0	0.3478916901989106	-1.843890594819275	0	
86	0.8500000000000005	-0.1376796738480361	-1.242394586035008	0	0.2938599615088529	-1.855805983969578	0	
87	0.8600000000000005	-0.1703857197451712	-1.238333035377366	0	0.2394253460788497	-1.866469079820112	0	
88	0.8700000000000006	-0.2024951304175172	-1.23348924687538	0	0.1846344048192663	-1.875852635423756	0	
89	0.8800000000000006	-0.2339687097824552	-1.227908238771421	0	0.1295352636119544	-1.883930236364853	0	
90	0.8900000000000006	-0.2647707590569693	-1.221636789372519	0	0.074177687676724	-1.890676362534538	0	
91	0.9000000000000006	-0.294869197519923	-1.214723078052754	0	0.01861315346069636	-1.896066468439469	0	
92	0.9100000000000006	-0.3242356520131575	-1.207216319457123	0	-0.03710508518001693	-1.900077082951549	0	
93	0.9200000000000006	-0.3528455151191057	-1.199166394817806	0	-0.09292193989938352	-1.902685929049086	0	
94	0.9300000000000006	-0.3806779723731921	-1.190623484292929	0	-0.148780443382768	-1.903872063715374	0	
95	0.9400000000000006	-0.407715999263435	-1.181637704182047	0	-0.2046217210230271	-1.903616037753081	0	
96	0.9500000000000006	-0.4339463291278396	-1.172258752765989	0	-0.2603849822945723	-1.901900074845148	0	
97	0.9600000000000006	-0.4593593933742195	-1.162535568367209	0	-0.3160075352957228	-1.898708268747658	0	
98	0.9700000000000006	-0.4839492357107275	-1.152516003036401	0	-0.3714248277897173	-1.894026797038772	0	
99	0.9800000000000006	-0.507713402284346	-1.14224651504868	0	-0.4265705178632246	-1.887844149371523	0	
100	0.9900000000000007	-0.530652809777056	-1.131771883144177	0	-0.4813765770325877	-1.88015136768829	0	
101	1.000000000000001	-0.5527715936059975	-1.121134945179342	0	-0.5357734282557157	-1.870942295353188	0	
102	1.010000000000001	-0.5740769384178822	-1.110376363570817	0	-0.5896901208440665	-1.860213831649418	0	
103	1.020000000000001	-0.5945788930649399	-1.099534419616626	0	-0.6430545437069048	-1.847966187578702	0	
104	1.030000000000001	-0.6142901722077919	-1.088644838470711	0	-0.6957936776921768	-1.834203138400205	0	
105	1.040000000000001	-0.6332259466197731	-1.077740646225933	0	-0.7478338870104109	-1.818932267872735	0	
106	1.050000000000001	-0.6514036241786718	-1.066852060225265	0	-0.7991012488396593	-1.802165198738036	0	
107	1.060000000000001	-0.6688426234376222	-1.056006413367399	0	-0.8495219192164309	-1.783917803631952	0	
108	1.070000000000001	-0.6855641415787133	-1.045228112797126	0	-0.899022532233906	-1.764210390366535	0	
109	1.080000000000001	-0.7015909184813939	-1.034538632968549	0	-0.9475306284186341	-1.743067855425877	0	
110	1.090000000000001	-0.7169469985913666	-1.023956542637836	0	-0.9949751069760094	-1.720519799598794	0	
111	1.100000000000001	-0.731657492259577	-1.01349756488135	0	-1.0412866954302	-1.696600599967512	0	
112	1.110000000000001	-0.7457483382364041	-1.003174668747991	0	-1.086398429093686	-1.671349433011747	0	
113	1.120000000000001	-0.7592460690499376	-0.9929981906490148	0	-1.130246131850751	-1.64481024438981	0	
114	1.130000000000001	-0.7721775810614284	-0.9829759830769625	0	-1.172768888997529	-1.617031662024832	0	
115	1.140000000000001	-0.7845699110635103	-0.9731135877449227	0	-1.213909502415768	-1.5880668504385	0	
116	1.150000000000001	-0.7964500213522276	-0.9634144297694716	0	-1.253614918226867	-1.557973305799088	0	
117	1.160000000000001	-0.8078445952450497	-0.9538800291091966	0	-1.29183661731984	-1.526812592826739	0	
118	1.170000000000001	-0.8187798450167122	-0.9445102251402093	0	-1.328530959792454	-1.494650026449739	0	
119	1.180000000000001	-0.8292813341676729	-0.9353034100232311	0	-1.363659475383401	-1.461554302840358	0	
120	1.190000000000001	-0.8393738158149802	-0.9262567664121001	0	-1.397189093370596	-1.427597086080837	0	
121	1.200000000000001	-0.8490810887966683	-0.9173665050828183	0	-1.429092307104609	-1.39285255812427	0	
122	1.210000000000001	-0.8584258728092048	-0.9086280982292784	0	-1.459347270251504	-1.357396940837579	0	
123	1.220000000000001	-0.8674297035605126	-0.9000365044713027	0	-1.487937823833708	-1.32130799967959	0	
124	1.230000000000001	-0.8761128485322933	-0.8915863820385722	0	-1.514853455171427	-1.284664538936499	0	
125	1.240000000000001	-0.8844942435232681	-0.8832722871086818	0	-1.540089191732925	-1.247545898398296	0	
126	1.250000000000001	-0.8925914497109283	-0.8750888548615754	0	-1.563645434603253	-1.210031460930334	0	
127	1.260000000000001	-0.9004206305457617	-0.8670309614353878	0	-1.585527737700837	-1.172200179617046	0	
128	1.270000000000001	-0.9079965473996977	-0.8590938655992303	0	-1.605746539956439	-1.134130132093427	0	
129	1.280000000000001	-0.9153325725477118	-0.8512733295676469	0	-1.624316858393115	-1.095898108411255	0	
130	1.290000000000001	-0.922440717781764	-0.8435657189444484	0	-1.641257950408356	-1.057579237393744	0	
131	1.300000000000001	-0.9293316767480442	-0.8359680822810573	0	-1.65659295358297	-1.01924665499602	0	
132	1.310000000000001	-0.9360148789652021	-0.8284782111532918	0	-1.6703485110658	-0.9809712167828741	0	
133	1.320000000000001	-0.9424985534213237	-0.8210946819939295	0	-1.682554390061974	-0.9428212553216402	0	
134	1.330000000000001	-0.9487897996553876	-0.813816881165468	0	-1.693243100243915	-0.9048623821133331	0	
135	1.340000000000001	-0.9548946642962044	-0.8066450149220777	0	-1.702449518069125	-0.8671573326809195	0	
136	1.350000000000001	-0.9608182211480004	-0.7995801059993879	0	-1.710210522083366	-0.8297658526159388	0	
137	1.360000000000001	-0.9665646530654882	-0.7926239785953946	0	-1.716564643362307	-0.7927446217569633	0	
138	1.370000000000001	-0.9721373340412236	-0.7857792334766951	0	-1.721551734340541	-0.7561472132280822	0	
139	1.380000000000001	-0.9775389101236951	-0.7790492148729621	0	-1.72521265842594	-0.7200240837873695	0	
140	1.390000000000001	-0.9827713779866603	-0.7724379707201097	0	-1.727589002022357	-0.6844225918035848	0	
141	1.400000000000001	-0.9878361601708817	-0.7659502076890168	0	-1.728722809898774	-0.6493870391709149	0	
142	1.410000000000001	-0.9927341762124825	-0.7595912423005702	0	-1.728656344254784	-0.6149587335623258	0	
143	1.420000000000001	-0.9974659090530023	-0.7533669492863806	0	-1.727431867341655	-0.5811760675889771	0	
144	1.430000000000001	-1.002031466291779	-0.7472837082133855	0	-1.725091447101338	-0.5480746116548196	0	
145	1.440000000000001	-1.006430635989597	-0.7413483492539625	0	-1.721676784975812	-0.5156872175533775	0	
146	1.450000000000001	-1.010662936862825	-0.735568098854082	0	-1.717229064807178	-0.4840441301319623	0	
147	1.460000000000001	-1.014727662819484	-0.7299505259323451	0	-1.711788821585096	-0.4531731046343959	0	
148	1.470000000000001	-1.018623921883488	-0.7245034891335594	0	-1.705395828692383	-0.4230995276166712	0	
149	1.480000000000001	-1.0223506696317	-0.7192350855621643	0	-1.698089002241898	-0.3938465396033519	0	
150	1.490000000000001	-1.025906737331787	-0.7141536013332482	0	-1.689906321079302	-0.3654351579105828	0	
151	1.500000000000001	-1.029290855018617	-0.7092674642016541	0	-1.680884761038428	-0.3378843983008973	0	
152	1.510000000000001	-1.032501669784697	-0.7045851984620537	0	-1.67106024207169	-0.3112113943535479	0	
153	1.520000000000001	-1.035537759587347	-0.700115382254109	0	-1.660467586931047	-0.2854315136310649	0	
154	1.530000000000001	-1.038397642893498	-0.6958666073560562	0	-1.649140490140179	-0.2605584698982129	0	
155	1.540000000000001	-1.041079784493524	-0.6918474415063758	0	-1.637111496071685	-0.2366044308041715	0	
156	1.550000000000001	-1.043582597819598	-0.6880663932558394	0	-1.624411985020599	-0.2135801205737838	0	
157	1.560000000000001	-1.045904444102885	-0.6845318793203388	0	-1.611072166244939	-0.1914949173704641	0	
158	1.570000000000001	-1.048043628698451	-0.6812521943778117	0	-1.597121077023079	-0.1703569450934638	0	
159	1.580000000000001	-1.049998394897941	-0.6782354832296424	0	-1.582586586855047	-0.1501731594572863	0	
160	1.590000000000001	-1.051766915538714	-0.6754897152275376	0	-1.56749540600937	-0.1309494282726985	0	
161	1.600000000000001	-1.053347282704803	-0.6730226608505901	0	-1.551873097687899	-0.1126906059086656	0	
162	1.610000000000001	-1.054737495800539	-0.6708418703035826	0	-1.535744093147985	-0.09540060196403144	0	
163	1.620000000000001	-1.055935448262268	-0.6689546539961906	0	-1.519131709183907	-0.07908244421833299	0	
164	1.630000000000001	-1.056938913157933	-0.6673680647532725	0	-1.502058167427801	-0.06373833596397893	0	
165	1.640000000000001	-1.057745527908613	-0.666088881598642	0	-1.484544614984433	-0.04936970784834716	0	
166	1.650000000000001	-1.058352778350876	-0.665123594948323	0	-1.466611145964213	-0.03597726437514603	0	
167	1.660000000000001	-1.058757982344163	-0.6644783930441358	0	-1.448276823525161	-0.02356102523061432	0	
168	1.670000000000001	-1.058958273113753	-0.6641591494543588	0	-1.429559702077363	-0.01212036161261487	0	
169	1.680000000000001	-1.058950582507292	-0.664171411465042	0	-1.410476849343206	-0.001654027750164655	0	
170	1.690000000000001	-1.058731624331586	-0.6645203891832077	0	-1.391044368003624	0.007839812191890561	0	
171	1.700000000000001	-1.058297877926595	-0.66521094517158	0	-1.371277416695244	0.01636356162291808	0	
172	1.710000000000001	-1.057645572125358	-0.6662475844336123	0	-1.351190230155989	0.02392017324685192	0	
173	1.720000000000001	-1.056770669742105	-0.6676344445674011	0	-1.330796138347765	0.03051313478487927	0	
174	1.730000000000001	-1.055668852726133	-0.6693752859076061	0	-1.310107584414862	0.03614645848914244	0	
175	1.740000000000001	-1.054335508116258	-0.6714734814758011	0	-1.289136141365868	0.04082467423259473	0	
176	1.750000000000001	-1.052765714929748	-0.6739320065618314	0	-1.267892527395746	0.04455282595603016	0	
177	1.760000000000001	-1.050954232120776	-0.6767534277618619	0	-1.246386619793637	0.04733647124825735	0	
178	1.770000000000001	-1.048895487746404	-0.6799398913030723	0	-1.224627467411245	0.04918168382900123	0	
179	1.780000000000001	-1.046583569483101	-0.683493110490524	0	-1.202623301696779	0.05009505869616859	0	
180	1.790000000000001	-1.044012216643531	-0.6874143521189097	0	-1.18038154633072	0.05008371968919134	0	
181	1.800000000000001	-1.041174813851819	-0.691704421700938	0	-1.157908825532371	0.04915532920807486	0	
182	1.810000000000001	-1.038064386545504	-0.6963636473753536	0	-1.135210971140729	0.04731809981324242	0	
183	1.820000000000001	-1.034673598483653	-0.7013918623714488	0	-1.112293028609677	0.04458080741405424	0	
184	1.830000000000001	-1.030994751452823	-0.7067883859237721	0	-1.089159262096298	0.0409528057338796	0	
185	1.840000000000001	-1.027019787375335	-0.7125520025510577	0	-1.065813158862065	0.03644404171666238	0	
186	1.850000000000001	-1.022740293037068	-0.7186809396376477	0	-1.042257433250096	0.03106507151406568	0	
187	1.860000000000001	-1.018147507664223	-0.725172843284365	0	-1.018494030547145	0.02482707666355843	0	
188	1.870000000000001	-1.013232333589265	-0.7320247524293511	0	-0.9945241310865284	0.01774188003645605	0	
189	1.880000000000001	-1.007985350254875	-0.7392330712783058	0	-0.9703481549971744	0.009821961101247445	0	
190	1.890000000000001	-1.002396831810052	-0.7467935401281731	0	-0.9459657680538391	0.001080470012132628	0	
191	1.900000000000001	-0.996456768553363	-0.7547012047189204	0	-0.921375889133411	-0.008468760003785603	0	
192	1.910000000000001	-0.9901548924735036	-0.7629503843047623	0	-0.8965766998309742	-0.01881120252372104	0	
193	1.920000000000001	-0.983480707125337	-0.7715346386989032	0	-0.8715656568355261	-0.02993163066925042	0	
194	1.930000000000001	-0.9764235220588904	-0.7804467346142923	0	-0.8463395077072684	-0.04181411334024709	0	
195	1.940000000000002	-0.9689724919879594	-0.7896786116963305	0	-0.820894310734241	-0.05444201560185491	0	
196	1.950000000000002	-0.9611166608423171	-0.7992213487209376	0	-0.7952254595734753	-0.06779800390510482	0	
197	1.960000000000002	-0.9528450107917044	-0.8090651305113555	0	-0.7693277133983218	-0.08186405683404796	0	
198	1.970000000000002	-0.9441465162594237	-0.819199216207629	0	-0.7431952332764841	-0.09662148207273991	0	
199	1.980000000000002	-0.9350102028575223	-0.8296119096013116	0	-0.7168216254897668	-0.1120509402710149	0	
200	1.990000000000002	-0.925425211073643	-0.8402905323215915	0	-0.6901999924738689	-0.1281324764556984	0	
201	2	-0.9153808644216292	-0.851221400724107	0	-0.6633229920020802	-0.1448455595805057	0	
